GLOBALSTAR M075         
1 37192U 10054E   24323.45044213 -.00000120  00000+0 -90137-4 0  9997
2 37192  51.9936 103.1817 0000799 103.8751 296.0404 12.62269035649233
GLOBALSTAR M073         
1 37193U 10054F   24323.55336859 -.00000084  00000+0  11175-3 0  9991
2 37193  52.0085  16.5281 0000354 137.1398  10.6312 12.62272637651285
GLOBALSTAR M083         
1 37739U 11033A   24323.40834733 -.00000097  00000+0  35444-4 0  9993
2 37739  51.9872 325.9902 0000460  94.9015  53.6294 12.62267934620235
GLOBALSTAR M088         
1 37740U 11033B   24323.83364160 -.00000065  00000+0  21525-3 0  9993
2 37740  51.9728 230.3620 0000902  74.8422 327.9822 12.62265196616128
GLOBALSTAR M091         
1 37741U 11033C   24323.40021939 -.00000073  00000+0  17402-3 0  9999
2 37741  51.9982 194.8633 0001234  89.7857  81.1005 12.62270770616569
GLOBALSTAR M085         
1 37742U 11033D   24323.51378514 -.00000104  00000+0 -51665-6 0  9994
2 37742  51.9841 145.7395 0001252 100.8894 287.5538 12.62269498617097
GLOBALSTAR M081         
1 37743U 11033E   24323.54161556 -.00000075  00000+0  16300-3 0  9994
2 37743  51.9930 148.3117 0001038 111.3391 283.4758 12.62273465617244
GLOBALSTAR M089         
1 37744U 11033F   24323.84742935 -.00000114  00000+0 -57522-4 0  9991
2 37744  51.9917 101.6473 0000579 112.0969  52.2127 12.62272454618379
